0 SL-6 DEB
1 14131U 81088M   13281.87549299  .00005008  00000-0  18136-1 0  7039
2 14131 062.9136 070.5108 3934816 192.3504 170.2615 06.91521182568846
0 SL-6 DEB
1 14131U 81088M   13283.60434845  .00003753  00000-0  13647-1 0  7051
2 14131 062.9177 069.1702 3933656 192.3956 154.2400 06.91533864568964
0 SL-6 DEB
1 14131U 81088M   13285.85125419  .00005135  00000-0  18549-1 0  7045
2 14131 062.9201 067.4344 3934932 192.4951 348.0930 06.91562967569114
0 SL-6 DEB
1 14131U 81088M   13286.86340718  .00004822  00000-0  17436-1 0  7055
2 14131 062.9220 066.6509 3934725 192.5290 347.9979 06.91573836569181
0 SL-6 DEB
1 14131U 81088M   13292.78955772  .00006692  00000-0  24120-1 0  7061
2 14131 062.9367 062.0685 3934665 192.7191 342.7853 06.91639409569591
0 SL-6 DEB
1 14131U 81088M   13293.80151727  .00007275  00000-0  26114-1 0  7077
2 14131 062.9390 061.2825 3935162 192.7769 342.4801 06.91651194569661
0 SL-6 DEB
1 14131U 81088M   13294.81598556  .00007854  00000-0  28125-1 0  7082
2 14131 062.9348 060.5016 3935398 192.8239 348.4693 06.91665311569731
